[{"OBJECT_NAME":"DEIMOS-1","OBJECT_ID":"2009-041A","EPOCH":"2026-03-09T22:50:30.761952","MEAN_MOTION":14.75118191,"ECCENTRICITY":0.00022903,"INCLINATION":97.7263,"RA_OF_ASC_NODE":230.5528,"ARG_OF_PERICENTER":117.9333,"MEAN_ANOMALY":242.2109,"EPHEMERIS_TYPE":0,"CLASSIFICATION_TYPE":"U","NORAD_CAT_ID":35681,"ELEMENT_SET_NO":999,"REV_AT_EPOCH":89225,"BSTAR":0.00020972265,"MEAN_MOTION_DOT":1.367e-5,"MEAN_MOTION_DDOT":0},{"OBJECT_NAME":"FENGYUN 1C DEB","OBJECT_ID":"1999-025NU","EPOCH":"2026-03-09T19:13:28.435584","MEAN_MOTION":14.23997641,"ECCENTRICITY":0.02808443,"INCLINATION":98.6209,"RA_OF_ASC_NODE":170.2273,"ARG_OF_PERICENTER":237.402,"MEAN_ANOMALY":119.9764,"EPHEMERIS_TYPE":0,"CLASSIFICATION_TYPE":"U","NORAD_CAT_ID":30043,"ELEMENT_SET_NO":999,"REV_AT_EPOCH":98584,"BSTAR":0.0010862444,"MEAN_MOTION_DOT":3.704e-5,"MEAN_MOTION_DDOT":0}]
